NORAD_CAT_ID,OBJECT_NAME,OBJECT_TYPE,EPOCH,MEAN_MOTION,ECCENTRICITY,INCLINATION,RA_OF_ASC_NODE,ARG_OF_PERICENTER,MEAN_ANOMALY,BSTAR,MEAN_MOTION_DOT,MEAN_MOTION_DDOT,TLE_LINE0,TLE_LINE1,TLE_LINE2,SEMIMAJOR_AXIS,PERIOD,APOGEE,PERIGEE,DECAYED
49768.0,STARLINK-3196,PAYLOAD,2022-08-22 08:04:52,15.08837837,0.0002209,53.2157,194.1958,50.5675,309.5512,9.6565e-05,1.249e-05,0.0,0 STARLINK-3196,1 49768U 21115AW  22234.33671661  .00001249  00000-0  96565-4 0  9991,2 49768  53.2157 194.1958 0002209  50.5675 309.5512 15.08837837 40129,6917.887,95.438,541.28,538.224,0.0
49768.0,STARLINK-3196,PAYLOAD,2022-08-23 06:20:16,15.08840633,0.0002207,53.216,190.0322,51.7737,308.3454,0.0001458,2.033e-05,0.0,0 STARLINK-3196,1 49768U 21115AW  22235.26407587  .00002033  00000-0  14580-3 0  9996,2 49768  53.2160 190.0322 0002207  51.7737 308.3454 15.08840633 40268,6917.878000000002,95.438,541.27,538.217,0.0
49768.0,STARLINK-3196,PAYLOAD,2022-08-24 03:00:18,15.08806606,0.0002496,53.217,186.1668,55.1053,305.0173,0.00041681,6.346e-05,0.0,0 STARLINK-3196,1 49768U 21115AW  22236.12521203  .00006346  00000-0  41681-3 0  9997,2 49768  53.2170 186.1668 0002496  55.1053 305.0173 15.08806606 41509,6917.982,95.44,541.5740000000002,538.121,0.0
49768.0,STARLINK-3196,PAYLOAD,2022-08-24 06:11:03,15.08835357,0.0002325,53.2159,185.5718,53.2573,306.8632,2.566e-05,1.2e-06,0.0,0 STARLINK-3196,1 49768U 21115AW  22236.25768418  .00000120  00000-0  25660-4 0  9996,2 49768  53.2159 185.5718 0002325  53.2573 306.8632 15.08835357 41528,6917.895,95.438,541.368,538.151,0.0
49768.0,STARLINK-3196,PAYLOAD,2022-08-25 02:51:04,15.08845878,0.0002378,53.2169,181.7045,53.2794,306.8417,3.0358000000000013e-05,1.95e-06,0.0,0 STARLINK-3196,1 49768U 21115AW  22237.11879681  .00000195  00000-0  30358-4 0  9999,2 49768  53.2169 181.7045 0002378  53.2794 306.8417 15.08845878 41657,6917.861999999999,95.437,541.372,538.082,0.0
49768.0,STARLINK-3196,PAYLOAD,2022-08-25 06:01:50,15.08846659,0.0002333,53.2166,181.1109,53.1523,306.9683,4.777600000000001e-05,4.72e-06,0.0,0 STARLINK-3196,1 49768U 21115AW  22237.25127563  .00000472  00000-0  47776-4 0  9999,2 49768  53.2166 181.1109 0002333  53.1523 306.9683 15.08846659 40562,6917.86,95.437,541.339,538.111,0.0
49768.0,STARLINK-3196,PAYLOAD,2022-08-25 13:58:45,15.08846553,0.0002251999999999,53.2167,179.6239,56.0824,304.0382,6.4266e-05,7.35e-06,0.0,0 STARLINK-3196,1 49768U 21115AW  22237.58247410  .00000735  00000-0  64266-4 0  9994,2 49768  53.2167 179.6239 0002252  56.0824 304.0382 15.08846553 40619,6917.86,95.437,541.283,538.1669999999998,0.0
49768.0,STARLINK-3196,PAYLOAD,2022-08-26 05:52:37,15.08836323,0.0002387,53.2165,176.6514,52.8982,307.2228,4.0061e-05,3.49e-06,0.0,0 STARLINK-3196,1 49768U 21115AW  22238.24488127  .00000349  00000-0  40061-4 0  9998,2 49768  53.2165 176.6514 0002387  52.8982 307.2228 15.08836323 41820,6917.892,95.438,541.408,538.105,0.0
49768.0,STARLINK-3196,PAYLOAD,2022-08-27 05:43:24,15.08844476,0.0002258,53.2164,172.1908,57.5569,302.5641,3.9477e-05,3.4e-06,0.0,0 STARLINK-3196,1 49768U 21115AW  22239.23847664  .00000340  00000-0  39477-4 0  9993,2 49768  53.2164 172.1908 0002258  57.5569 302.5641 15.08844476 40865,6917.8669999999975,95.437,541.294,538.17,0.0
49768.0,STARLINK-3196,PAYLOAD,2022-08-28 03:58:48,15.08838493,0.0002158,53.2161,168.0275,62.2823,297.8388,7.2996e-05,8.74e-06,0.0,0 STARLINK-3196,1 49768U 21115AW  22240.16583839  .00000874  00000-0  72996-4 0  9993,2 49768  53.2161 168.0275 0002158  62.2823 297.8388 15.08838493 42114,6917.885,95.438,541.243,538.257,0.0
49768.0,STARLINK-3196,PAYLOAD,2022-08-29 03:49:35,15.08846254,0.0002234999999999,53.216,163.5671,58.4677,301.6533,9.4206e-05,1.212e-05,0.0,0 STARLINK-3196,1 49768U 21115AW  22241.15943338  .00001212  00000-0  94206-4 0  9992,2 49768  53.2160 163.5671 0002235  58.4677 301.6533 15.08846254 41156,6917.861,95.437,541.2719999999998,538.18,0.0
49768.0,STARLINK-3196,PAYLOAD,2022-08-30 03:40:22,15.08836291,0.0002379,53.2166,159.1046,59.5,300.6227,8.1121e-05,1.003e-05,0.0,0 STARLINK-3196,1 49768U 21115AW  22242.15304181  .00001003  00000-0  81121-4 0  9990,2 49768  53.2166 159.1046 0002379  59.5000 300.6227 15.08836291 42419,6917.892,95.438,541.4019999999998,538.111,0.0
49768.0,STARLINK-3196,PAYLOAD,2022-08-30 17:58:50,15.08839595,0.0002491,53.217,156.43,58.6089,301.5146,8.4415e-05,1.055e-05,0.0,0 STARLINK-3196,1 49768U 21115AW  22242.74920112  .00001055  00000-0  84415-4 0  9999,2 49768  53.2170 156.4300 0002491  58.6089 301.5146 15.08839595 41395,6917.882,95.438,541.47,538.023,0.0
49768.0,STARLINK-3196,PAYLOAD,2022-08-31 03:31:10,15.08842002,0.0002184,53.2161,154.6444,62.8129,297.3085,-9.2807e-05,-1.765e-05,0.0,0 STARLINK-3196,1 49768U 21115AW  22243.14664421 -.00001765  00000-0 -92807-4 0  9996,2 49768  53.2161 154.6444 0002184  62.8129 297.3085 15.08842002 41453,6917.874,95.437,541.25,538.2280000000002,0.0
49768.0,STARLINK-3196,PAYLOAD,2022-08-31 17:49:38,15.08838007,0.0002149,53.2166,151.9683,62.4783,297.6428,5.4215e-05,5.75e-06,0.0,0 STARLINK-3196,1 49768U 21115AW  22243.74280527  .00000575  00000-0  54215-4 0  9990,2 49768  53.2166 151.9683 0002149  62.4783 297.6428 15.08838007 41540,6917.886,95.438,541.238,538.265,0.0
49768.0,STARLINK-3196,PAYLOAD,2022-09-01 11:18:52,15.08840629,0.0002265,53.2166,148.6979,61.117,299.0049,7.5612e-05,9.15e-06,0.0,0 STARLINK-3196,1 49768U 21115AW  22244.47144477  .00000915  00000-0  75612-4 0  9996,2 49768  53.2166 148.6979 0002265  61.1170 299.0049 15.08840629 41656,6917.878000000002,95.438,541.31,538.177,0.0
49768.0,STARLINK-3196,PAYLOAD,2022-09-01 17:40:25,15.08831899,0.0002258,53.2164,147.5088,61.8356,298.2864,6.7987e-05,7.94e-06,0.0,0 STARLINK-3196,1 49768U 21115AW  22244.73640922  .00000794  00000-0  67987-4 0  9992,2 49768  53.2164 147.5088 0002258  61.8356 298.2864 15.08831899 41697,6917.905,95.438,541.332,538.2080000000002,0.0
49768.0,STARLINK-3196,PAYLOAD,2022-09-02 01:37:21,15.08834026,0.0002251,53.2166,146.0219,62.9961,297.126,7.3884e-05,8.88e-06,0.0,0 STARLINK-3196,1 49768U 21115AW  22245.06760903  .00000888  00000-0  73884-4 0  9998,2 49768  53.2166 146.0219 0002251  62.9961 297.1260 15.08834026 41745,6917.899,95.438,541.321,538.206,0.0
49768.0,STARLINK-3196,PAYLOAD,2022-09-02 20:41:58,15.08847376,0.0002275,53.2165,142.4536,63.9883,296.1343,7.950399999999999e-05,9.77e-06,0.0,0 STARLINK-3196,1 49768U 21115AW  22245.86248055  .00000977  00000-0  79504-4 0  9999,2 49768  53.2165 142.4536 0002275  63.9883 296.1343 15.08847376 41862,6917.858,95.437,541.297,538.149,0.0
49768.0,STARLINK-3196,PAYLOAD,2022-09-03 03:03:30,15.08848375,0.0002284,53.2165,141.2641,64.3232,295.7996,8.1534e-05,1.01e-05,0.0,0 STARLINK-3196,1 49768U 21115AW  22246.12743872  .00001010  00000-0  81534-4 0  9991,2 49768  53.2165 141.2641 0002284  64.3232 295.7996 15.08848375 41903,6917.855,95.437,541.3,538.14,0.0
49768.0,STARLINK-3196,PAYLOAD,2022-09-03 20:32:45,15.0884029,0.0002265,53.2164,137.9928,69.0039,291.1196,0.00010999,1.463e-05,0.0,0 STARLINK-3196,1 49768U 21115AW  22246.85608495  .00001463  00000-0  10999-3 0  9990,2 49768  53.2164 137.9928 0002265  69.0039 291.1196 15.08840290 42011,6917.88,95.438,541.311,538.178,0.0
49768.0,STARLINK-3196,PAYLOAD,2022-09-04 09:15:50,15.08839972,0.000231,53.2166,135.6153,63.6644,296.4585,5.7747e-05,6.31e-06,0.0,0 STARLINK-3196,1 49768U 21115AW  22247.38600618  .00000631  00000-0  57747-4 0  9997,2 49768  53.2166 135.6153 0002310  63.6644 296.4585 15.08839972 42094,6917.88,95.438,541.344,538.1469999999998,0.0
49768.0,STARLINK-3196,PAYLOAD,2022-09-05 02:45:04,15.08846909,0.0002144,53.2168,132.3423,57.4568,302.6631,1.9176e-05,1.7e-07,0.0,0 STARLINK-3196,1 49768U 21115AW  22248.11463980  .00000017  00000-0  19176-4 0  9990,2 49768  53.2168 132.3423 0002144  57.4568 302.6631 15.08846909 42204,6917.859,95.437,541.207,538.241,0.0
49768.0,STARLINK-3196,PAYLOAD,2022-09-05 15:28:10,15.08839812,0.0002266,53.2168,129.9641,60.7628,299.3591,7.4638e-05,9e-06,0.0,0 STARLINK-3196,1 49768U 21115AW  22248.64456323  .00000900  00000-0  74638-4 0  9996,2 49768  53.2168 129.9641 0002266  60.7628 299.3591 15.08839812 43390,6917.880999999999,95.438,541.314,538.178,0.0
49768.0,STARLINK-3196,PAYLOAD,2022-09-05 20:14:19,15.08835942,0.000225,53.2167,129.0715,63.0523,297.0698,-6.044e-05,-1.25e-05,0.0,0 STARLINK-3196,1 49768U 21115AW  22248.84328536 -.00001250  00000-0 -60440-4 0  9999,2 49768  53.2167 129.0715 0002250  63.0523 297.0698 15.08835942 42319,6917.893,95.438,541.314,538.201,0.0
49768.0,STARLINK-3196,PAYLOAD,2022-09-06 01:00:29,15.08833747,0.0002154999999999,53.2171,128.1798,55.5941,304.5255,-2.1276e-05,-6.27e-06,0.0,0 STARLINK-3196,1 49768U 21115AW  22249.04201174 -.00000627  00000-0 -21276-4 0  9991,2 49768  53.2171 128.1798 0002155  55.5941 304.5255 15.08833747 42346,6917.9,95.438,541.255,538.274,0.0
49768.0,STARLINK-3196,PAYLOAD,2022-09-06 16:54:22,15.0882207,0.0002399999999999,53.2167,125.2062,60.9503,299.173,1.94e-05,2e-07,0.0,0 STARLINK-3196,1 49768U 21115AW  22249.70442199  .00000020  00000-0  19400-4 0  9999,2 49768  53.2167 125.2062 0002400  60.9503 299.1730 15.08822070 43558,6917.935,95.439,541.46,538.14,0.0
49768.0,STARLINK-3196,PAYLOAD,2022-09-07 00:51:17,15.08832696,0.0002013,53.2166,123.7191,64.7464,295.3736,-5.3276e-05,-1.136e-05,0.0,0 STARLINK-3196,1 49768U 21115AW  22250.03561832 -.00001136  00000-0 -53276-4 0  9993,2 49768  53.2166 123.7191 0002013  64.7464 295.3736 15.08832696 43606,6917.903,95.438,541.16,538.375,0.0
49768.0,STARLINK-3196,PAYLOAD,2022-09-08 00:42:04,15.08830374,0.0002000999999999,53.2168,119.2592,59.4485,300.6705,6.32e-05,7.18e-06,0.0,0 STARLINK-3196,1 49768U 21115AW  22251.02921945  .00000718  00000-0  63200-4 0  9999,2 49768  53.2168 119.2592 0002001  59.4485 300.6705 15.08830374 42644,6917.91,95.438,541.159,538.391,0.0
